FLOCK 3P-13             
1 42040U 17008CW  18016.11081001  .00001368  00000-0  59923-4 0  9994
2 42040  97.4709  81.8524 0007721 179.1189 181.0063 15.23721046 50116
FLOCK 3P-55             
1 42041U 17008CX  18016.15504067  .00003205  00000-0  13615-3 0  9990
2 42041  97.4708  81.9406 0007423 182.0108 178.1101 15.23770362 50967
FLOCK 3P-56             
1 42042U 17008CY  18015.91803514  .00002615  00000-0  10987-3 0  9996
2 42042  97.4704  81.7820 0007337 181.6917 178.4297 15.24316366 50723
FLOCK 3P-81             
1 42043U 17008CZ  18015.87100020  .00001211  00000-0  53163-4 0  9999
2 42043  97.4730  81.6710 0008787 163.1635 196.9895 15.23867341 50094
FLOCK 3P-87             
1 42044U 17008DA  18016.47360619  .00001664  00000-0  72091-4 0  9992
2 42044  97.4725  82.2268 0009078 158.5393 201.6226 15.23785608 50331
FLOCK 3P-29             
1 42045U 17008DB  18016.14682987  .00002035  00000-0  87438-4 0  9996
2 42045  97.4709  81.8179 0008773 156.6004 203.5634 15.23812654 50133
FLOCK 3P-82             
1 42046U 17008DC  18016.46786074  .00002349  00000-0  99888-4 0  9994
2 42046  97.4728  82.2431 0009038 159.5196 200.6405 15.23997305 50232
FLOCK 3P-78             
1 42047U 17008DD  18016.14392114  .00001642  00000-0  71090-4 0  9998
2 42047  97.4728  81.9142 0008951 159.6846 200.4749 15.23817889 50118
FLOCK 3P-74             
1 42048U 17008DE  18016.15436369  .00002585  00000-0  11034-3 0  9999
2 42048  97.4733  81.9118 0009274 160.6326 199.5265 15.23778050 50119
FLOCK 3P-31             
1 42049U 17008DF  18015.76179506  .00001311  00000-0  57406-4 0  9993
2 42049  97.4708  81.4157 0008845 159.0433 201.1168 15.23790071 49515
FLOCK 3P-83             
1 42050U 17008DG  18015.63163633  .00003190  00000-0  13548-3 0  9990
2 42050  97.4730  81.3695 0009052 163.0217 197.1324 15.23778376 50765
FLOCK 3P-72             
1 42051U 17008DH  18015.80975190  .00000692  00000-0  31876-4 0  9998
2 42051  97.4736  81.6139 0008708 161.3817 198.7740 15.23640336 48380
LEMUR-2-REDFERN-GOES    
1 42059U 98067LA  18016.48336974  .00020698  00000-0  19274-3 0  9991
2 42059  51.6364  40.3557 0006747  17.7520 342.3711 15.67317301 49353
LEMUR-2-TRUTNA          
1 42067U 98067LC  18016.50060807  .00056229  00000-0  29755-3 0  9996
2 42067  51.6410  29.9027 0005497  28.6281 331.5021 15.79994272 49327
LEMUR-2-AUSTINTACIOUS   
1 42068U 98067LD  18016.17626898  .00027385  00000-0  23152-3 0  9994
2 42068  51.6371  39.8014 0006221  10.3803 349.7322 15.69509662 49266
LEMUR-2-TRUTNAHD        
1 42069U 98067LE  18016.47761597  .00022739  00000-0  20437-3 0  9995
2 42069  51.6374  39.5912 0006099  16.9814 343.1386 15.68132612 49344
HAVELSAT                
1 42700U 98067LH  18016.46488837  .00016215  00000-0  17343-3 0  9993
2 42700  51.6381  46.2602 0005563  39.3794 320.7604 15.64031783 38228
SOMP 2                  
1 42701U 98067LJ  18016.12853230  .00017475  00000-0  19044-3 0  9999
2 42701  51.6378  48.5138 0005548  37.9501 322.1883 15.63486312 38155
COLUMBIA                
1 42702U 98067LK  18016.22925931  .00140224  00000-0  64244-3 0  9990
2 42702  51.6306  37.0673 0006892  39.0122 321.1377 15.82729067 38244
SGSAT                   
1 42703U 98067LL  18016.22497709  .00062412  00000-0  43801-3 0  9996
2 42703  51.6330  41.5866 0003582   7.0021 353.1027 15.73567418 38171
CXBN-2                  
1 42704U 98067LM  18016.44834033  .00016760  00000-0  18184-3 0  9997
2 42704  51.6386  46.9062 0002329 356.0172   4.0804 15.63646099 38135
ICECUBE                 
1 42705U 98067LN  18016.47507942  .00028622  00000-0  27251-3 0  9992
2 42705  51.6415  44.8720 0002703   0.0313   0.0683 15.66575549 38221
PHOENIX                 
1 42706U 98067LP  18016.11593730  .00015557  00000-0  17077-3 0  9992
2 42706  51.6381  48.4329 0001678  13.5663 346.5376 15.63411046 38074
X-CUBESAT               
1 42707U 98067LQ  18016.47363349  .00017785  00000-0  18921-3 0  9997
2 42707  51.6360  46.2983 0001949  12.9563 347.1482 15.64099500 38126
QBEE50-LTU-OC           
1 42708U 98067LR  18016.49251522  .00016669  00000-0  18002-3 0  9999
2 42708  51.6376  46.4330 0001904  13.8847 346.2199 15.63769556 38082
ALTAIR PATHFINDER       
1 42711U 98067LS  18016.09070316  .00011395  00000-0  14153-3 0  9993
2 42711  51.6380  51.2574 0004053 340.4506  19.6331 15.60511295 37691
SHARC                   
1 42712U 98067LT  18016.13858453  .00010575  00000-0  13626-3 0  9998
2 42712  51.6398  51.6023 0002417 353.5170   6.5791 15.59630032 37939
ZA-AEROSAT              
1 42713U 98067LU  18016.47847994  .00014804  00000-0  16972-3 0  9990
2 42713  51.6373  47.8493 0002409 342.7084  17.3827 15.62333505 37777
LINK                    
1 42714U 98067LV  18016.50163295  .00026755  00000-0  25517-3 0  9993
2 42714  51.6349  44.9718 0002856 351.1462   8.9483 15.66571403 37925
CSUNSAT 1               
1 42715U 98067LW  18016.34197626  .00014846  00000-0  16873-3 0  9994
2 42715  51.6386  48.4413 0004138 333.6671  26.4112 15.62553153 37753
UPSAT                   
1 42716U 98067LX  18015.56342921  .00025658  00000-0  25509-3 0  9997
2 42716  51.6374  49.9843 0004225  35.1511 324.9763 15.65551200 37794
SPACECUBE               
1 42717U 98067LY  18016.51231538  .00016787  00000-0  18192-3 0  9998
2 42717  51.6372  46.5705 0004172  40.2790 319.8513 15.63670935 37162
HOOPOE                  
1 42718U 98067LZ  18016.45127124  .00018754  00000-0  19487-3 0  9991
2 42718  51.6378  46.1646 0004209  37.3913 322.7374 15.64653141 37163
CHALLENGER              
1 42721U 98067MA  18016.47803707  .00034313  00000-0  30416-3 0  9999
2 42721  51.6359  44.0623 0006578  22.6380 337.4905 15.68225879 36893
NJUST-1                 
1 42722U 98067MB  18016.33771120  .00012457  00000-0  14687-3 0  9995
2 42722  51.6382  49.1605 0006778  23.8528 336.2779 15.61767661 36816
UNSW-ECO                
1 42723U 98067MC  18016.48579151  .00021348  00000-0  22032-3 0  9994
2 42723  51.6387  46.4047 0006481  22.6852 337.4429 15.64716408 36844
DUTHSAT                 
1 42724U 98067MD  18016.07280890  .00032588  00000-0  29697-3 0  9991
2 42724  51.6367  46.6243 0005836  22.2433 337.8815 15.67576973 36721
LILACSAT-1              
1 42725U 98067ME  18015.90512621  .00017501  00000-0  19583-3 0  9994
2 42725  51.6382  50.7732 0005856  23.6165 336.5098 15.62802643 36671
NSIGHT-1                
1 42726U 98067MF  18016.45505245  .00006866  00000-0  92833-4 0  9992
2 42726  51.6396  50.7109 0006242  29.8024 330.3323 15.59009944 36714
SNUSAT-1                
1 42727U 98067MG  18015.52461567  .00017680  00000-0  19825-3 0  9993
2 42727  51.6368  52.7074 0007195 347.2075  12.8736 15.62730839 36569
QBITO                   
1 42728U 98067MH  18016.48074362  .00018244  00000-0  19758-3 0  9995
2 42728  51.6397  47.1409 0003602  30.4885 329.6319 15.63619888 36568
AALTO-2                 
1 42729U 98067MJ  18016.47688318  .00017947  00000-0  19374-3 0  9990
2 42729  51.6381  47.0940 0003589  29.4235 330.6961 15.63715782 36578
SUSAT                   
1 42730U 98067MK  18016.50787990  .00016743  00000-0  18475-3 0  9996
2 42730  51.6376  47.2935 0003635  28.1357 331.9834 15.63209877 36568
I-INSPIRE II            
1 42731U 98067ML  18016.33402728  .00021404  00000-0  21802-3 0  9999
2 42731  51.6368  46.8597 0006366 339.8745  20.1998 15.65046950 36602
POLYITAN-2-SAU          
1 42732U 98067MM  18016.33424728  .00018719  00000-0  20018-3 0  9997
2 42732  51.6375  47.6204 0006378 338.3321  21.7403 15.63909334 36590
SNUSAT-1B               
1 42733U 98067MN  18016.50913724  .00015981  00000-0  17661-3 0  9994
2 42733  51.6377  47.2931 0006500 340.5508  19.5238 15.63198312 36615
EXALTA-1                
1 42734U 98067MP  18016.33971415  .00022678  00000-0  23046-3 0  9992
2 42734  51.6361  46.8979 0007836   1.2075 358.8938 15.65054248 36559
AOXIANG-1               
1 42735U 98067MQ  18016.51727047  .00013097  00000-0  15308-3 0  9990
2 42735  51.6375  48.0998 0007300  21.5587 338.5713 15.61935483 37977
BEEAGLESAT              
1 42736U 98067MR  18016.48225376  .00015505  00000-0  17555-3 0  9997
2 42736  51.6372  47.8640 0007170  20.1469 339.9807 15.62595200 36669
ATLANTIS                
1 42737U 98067MS  18016.10728494  .00093601  00000-0  54317-3 0  9996
2 42737  51.6285  40.7615 0007388  20.6431 339.4867 15.77727606 36611
LEMUR-2-ANGELA          
1 42752U 17019B   18016.47716636  .00001306  00000-0  59062-4 0  9990
2 42752  51.6426  98.1761 0010689  27.4565 332.6977 15.28517748 33901
LEMUR-2-JENNYBARNA      
1 42753U 17019C   18016.51421828  .00001409  00000-0  62040-4 0  9996
2 42753  51.6402  97.6828 0010462  28.5160 331.6391 15.28908670 33868
LEMUR-2-ROBMOORE        
1 42754U 17019D   18016.48793560  .00001944  00000-0  81876-4 0  9990
2 42754  51.6423  98.2429 0010607  29.8705 330.2878 15.28436140 33881
LEMUR-2-SPIROVISION     
1 42755U 17019E   18016.52799545  .00001031  00000-0  48904-4 0  9997
2 42755  51.6409  97.7638 0010671  30.5311 329.6288 15.28813109 33785
UCLSAT                  
1 42765U 17036A   18016.36784496  .00001222  00000-0  57458-4 0  9994
2 42765  97.4231  78.5241 0010516 245.2126 114.8016 15.21436345 31621
LITUANICASAT-2          
1 42768U 17036D   18016.36509530  .00001916  00000-0  90071-4 0  9999
2 42768  97.4241  78.2336 0014833 234.4498 125.5356 15.20721027 31488
LEMUR-2-SHAINAJOHL      
1 42771U 17036G   18016.42321529  .00001198  00000-0  57685-4 0  9996
2 42771  97.4235  78.3040 0013950 233.3147 126.6807 15.20613932 31439
LEMUR-2-XUENITERENCE    
1 42772U 17036H   18015.62753841  .00001456  00000-0  69337-4 0  9998
2 42772  97.4236  77.5333 0013540 236.0690 123.9258 15.20656892 31314
LEMUR-2-LUCYBRYCE       
1 42773U 17036J   18015.80704244  .00001672  00000-0  78680-4 0  9993
2 42773  97.4241  77.7557 0013416 234.5809 125.4174 15.20882633 31349
